{
  "type": "FeatureCollection",
  "name": "RPD_PointLeveOuvrageReseau_Reco",
  "crs": {
    "type": "name",
    "properties": {
      "name": "urn:ogc:def:crs:EPSG::2154"
    }
  },
  "features": [
    {
      "type": "Feature",
      "properties": {
        "ogr_pkid": "__REPERE_A_SUPPRIMER__",
        "id": null,
        "NumeroPoint": null,
        "Producteur": null,
        "PrecisionXYnum": null,
        "PrecisionZnum": null,
        "ChargeGeneratrice": null,
        "ChargeGeneratrice_uom": null,
        "Horodatage": null
      },
      "geometry": {
        "type": "Point",
        "coordinates": [
          850000.0,
          6800000.0,
          0.0
        ]
      }
    }
  ]
}
