{
  "type": "FeatureCollection",
  "name": "RPD_Galerie_Reco",
  "crs": {
    "type": "name",
    "properties": {
      "name": "urn:ogc:def:crs:EPSG::2154"
    }
  },
  "features": [
    {
      "type": "Feature",
      "properties": {
        "ogr_pkid": "__REPERE_A_SUPPRIMER__",
        "id": null,
        "PrecisionXY": null,
        "PrecisionZ": null,
        "Hauteur": null,
        "Hauteur_uom": null,
        "Largeur": null,
        "Largeur_uom": null,
        "ProfondeurMinNonReg": null,
        "ProfondeurMinNonReg_uom": null,
        "cables_href": null
      },
      "geometry": {
        "type": "LineString",
        "coordinates": [
          [
            850000.0,
            6800000.0,
            0.0
          ],
          [
            850001.0,
            6800001.0,
            0.0
          ]
        ]
      }
    }
  ]
}
