{
  "type": "FeatureCollection",
  "name": "RPD_GeometrieSupplementaire_Reco",
  "crs": {
    "type": "name",
    "properties": {
      "name": "urn:ogc:def:crs:EPSG::2154"
    }
  },
  "features": [
    {
      "type": "Feature",
      "properties": {
        "fid": null,
        "ogr_pkid": "__REPERE_A_SUPPRIMER__",
        "id": null,
        "Commentaire": "REPERE TEMPLATE - SUPPRIMER AVANT SAISIE",
        "PrecisionXY": null,
        "PrecisionZ": null,
        "Ligne3D": null
      },
      "geometry": {
        "type": "MultiPolygon",
        "coordinates": [
          [
            [
              [
                850000.0,
                6800000.0,
                0.0
              ],
              [
                850001.0,
                6800000.0,
                0.0
              ],
              [
                850001.0,
                6800001.0,
                0.0
              ],
              [
                850000.0,
                6800000.0,
                0.0
              ]
            ]
          ]
        ]
      }
    }
  ]
}
