{
  "type": "FeatureCollection",
  "name": "RPD_CableTerre_Reco",
  "crs": {
    "type": "name",
    "properties": {
      "name": "urn:ogc:def:crs:EPSG::2154"
    }
  },
  "features": [
    {
      "type": "Feature",
      "properties": {
        "fid": null,
        "ogr_pkid": "__REPERE_A_SUPPRIMER__",
        "id": null,
        "FonctionCable_href": null,
        "Materiau": null,
        "NatureCableTerre_href": null,
        "noeudreseau_href": null,
        "Statut": null,
        "Commentaire": "REPERE TEMPLATE - SUPPRIMER AVANT SAISIE",
        "TypePose": null,
        "PrecisionXY": null,
        "PrecisionZ": null,
        "Section": null,
        "Section_uom": null
      },
      "geometry": {
        "type": "LineString",
        "coordinates": [
          [
            850000.0,
            6800000.0,
            0.0
          ],
          [
            850001.0,
            6800001.0,
            0.0
          ]
        ]
      }
    }
  ]
}
